STARLINK-2648
1 18679C 21044AT  21326.16422044  .00001337  00000-0  89575-4 0  3268
2 18679  53.0557 312.9985 0001909  53.5406 357.3650 15.06391595    14
